{
  "norad_id": 53522,
  "name": "YAOGAN-35 04A",
  "history": [
    {
      "epoch": "2026-03-27T16:57:27.107136",
      "apogee_km": 503.5152207735864,
      "perigee_km": 489.31720602195674,
      "latitude_deg": 3.757244791658993,
      "longitude_deg": -135.9698809599504,
      "semi_major_axis_km": 6874.553213397771,
      "eccentricity": 0.00103265,
      "inclination_deg": 35.0095,
      "raan_deg": 204.161,
      "arg_perigee_deg": 261.7797,
      "mean_anomaly_deg": 98.1747,
      "mean_motion_rev_day": 15.23126748
    }
  ]
}