{"fetched_at":"2026-03-29T02:12:04Z","count":15717,"tles":[{"name":"YAOGAN-35 04A","line1":"1 53522U 22100A   26086.70656374  .00000329  00000+0  15121-4 0  9999","line2":"2 53522  35.0095 204.1610 0010326 261.7797  98.1747 15.23126748200834","category":"Other"}]}